{
    "links": {
        "self": "http://www.neowsapp.com/rest/v1/neo/3483328?api_key=iIulBulltgU6a56xZRHN4H3l9WmuAYTsLGpBGhQ2"
    },
    "id": "3483328",
    "neo_reference_id": "3483328",
    "name": "(2009 XQ2)",
    "designation": "2009 XQ2",
    "nasa_jpl_url": "http://ssd.jpl.nasa.gov/sbdb.cgi?sstr=3483328",
    "absolute_magnitude_h": 25.2,
    "estimated_diameter": {
        "kilometers": {
            "estimated_diameter_min": 0.0242412481,
            "estimated_diameter_max": 0.0542050786
        },
        "meters": {
            "estimated_diameter_min": 24.2412481101,
            "estimated_diameter_max": 54.2050786336
        },
        "miles": {
            "estimated_diameter_min": 0.0150628086,
            "estimated_diameter_max": 0.0336814639
        },
        "feet": {
            "estimated_diameter_min": 79.5316564495,
            "estimated_diameter_max": 177.8381901842
        }
    },
    "is_potentially_hazardous_asteroid": false,
    "close_approach_data": [
        {
            "close_approach_date": "2009-12-16",
            "close_approach_date_full": "2009-Dec-16 00:52",
            "epoch_date_close_approach": 1260924720000,
            "relative_velocity": {
                "kilometers_per_second": "18.267633474",
                "kilometers_per_hour": "65763.48050636",
                "miles_per_hour": "40862.8693179658"
            },
            "miss_distance": {
                "astronomical": "0.014664013",
                "lunar": "5.704301057",
                "kilometers": "2193705.11045231",
                "miles": "1363105.147609478"
            },
            "orbiting_body": "Earth"
        }
    ],
    "orbital_data": {
        "orbit_id": "7",
        "orbit_determination_date": "2017-04-06 08:58:47",
        "first_observation_date": "2009-12-13",
        "last_observation_date": "2009-12-13",
        "data_arc_in_days": null,
        "observations_used": 16,
        "orbit_uncertainty": "9",
        "minimum_orbit_intersection": ".0146614",
        "jupiter_tisserand_invariant": "5.226",
        "epoch_osculation": "2455178.5",
        "eccentricity": ".5659443615455747",
        "semi_major_axis": "1.169486261992082",
        "inclination": "6.757914532420603",
        "ascending_node_longitude": "271.1703409032182",
        "orbital_period": "461.9458965269046",
        "perihelion_distance": ".5076221061126527",
        "perihelion_argument": "282.4839232383436",
        "aphelion_distance": "1.831350417871513",
        "perihelion_time": "2455235.949110956450",
        "mean_anomaly": "315.2292160189858",
        "mean_motion": ".7793120421820501",
        "equinox": "J2000",
        "orbit_class": {
            "orbit_class_type": "APO",
            "orbit_class_description": "Near-Earth asteroid orbits which cross the Earth’s orbit similar to that of 1862 Apollo",
            "orbit_class_range": "a (semi-major axis) > 1.0 AU; q (perihelion) < 1.017 AU"
        }
    },
    "is_sentry_object": false
}